NOAA 12                 
1 21263U 91032A   24349.76326141  .00000275  00000+0  13183-3 0  9993
2 21263  98.5731 336.9677 0013416 189.2430 170.8505 14.26493984746623
NOAA 12 DEB             
1 37831U 91032D   24348.58635470  .00016196  00000+0  30269-2 0  9990
2 37831  98.1982  33.2627 0005948 254.7953 236.5822 14.64962646694246
NOAA 12 DEB             
1 37832U 91032E   24349.64234600  .00010931  00000+0  27026-2 0  9997
2 37832  98.3271  41.3923 0009052  43.6564 117.5843 14.52158406692788
NOAA 12 DEB             
1 38546U 91032F   24347.48125780  .00002553  00000+0  86077-3 0  9991
2 38546  98.3468 342.4285 0012344 121.4964  32.0525 14.37796548679828
NOAA 12 DEB             
1 38547U 91032G   24349.77197277  .00000690  00000+0  28226-3 0  9998
2 38547  98.4728 336.7732 0005215 154.8844 205.2594 14.30333181684658
